CCSDS_OMM_VERS = 2.0
CREATION_DATE  = 
ORIGINATOR     = 

OBJECT_NAME    = STARLINK-36836
OBJECT_ID      = 2026-041AB
CENTER_NAME    = EARTH
REF_FRAME      = TEME
TIME_SYSTEM    = UTC
MEAN_ELEMENT_THEORY = SGP/SGP4

EPOCH          = 2026-03-12T06:00:00.999648
MEAN_MOTION    = 15.86805428
ECCENTRICITY   = .00006506
INCLINATION    = 53.1580
RA_OF_ASC_NODE = 49.1202
ARG_OF_PERICENTER = 89.6379
MEAN_ANOMALY   = 344.8380

EPHEMERIS_TYPE = 0
CLASSIFICATION_TYPE = U
NORAD_CAT_ID   = 68065
ELEMENT_SET_NO = 999
REV_AT_EPOCH   = 278
BSTAR          = -.68609508E-2
MEAN_MOTION_DOT = -.1578166E-1
MEAN_MOTION_DDOT = 0

CCSDS_OMM_VERS = 2.0
CREATION_DATE  = 
ORIGINATOR     = 

OBJECT_NAME    = STARLINK-36976
OBJECT_ID      = 2026-041AC
CENTER_NAME    = EARTH
REF_FRAME      = TEME
TIME_SYSTEM    = UTC
MEAN_ELEMENT_THEORY = SGP/SGP4

EPOCH          = 2026-03-12T06:00:00.999648
MEAN_MOTION    = 15.86918981
ECCENTRICITY   = .00006961
INCLINATION    = 53.1577
RA_OF_ASC_NODE = 49.1126
ARG_OF_PERICENTER = 84.2846
MEAN_ANOMALY   = 353.8348

EPHEMERIS_TYPE = 0
CLASSIFICATION_TYPE = U
NORAD_CAT_ID   = 68066
ELEMENT_SET_NO = 999
REV_AT_EPOCH   = 278
BSTAR          = -.68446639E-2
MEAN_MOTION_DOT = -.1582728E-1
MEAN_MOTION_DDOT = 0

CCSDS_OMM_VERS = 2.0
CREATION_DATE  = 
ORIGINATOR     = 

OBJECT_NAME    = STARLINK-36929
OBJECT_ID      = 2026-041AD
CENTER_NAME    = EARTH
REF_FRAME      = TEME
TIME_SYSTEM    = UTC
MEAN_ELEMENT_THEORY = SGP/SGP4

EPOCH          = 2026-03-12T06:00:00.999648
MEAN_MOTION    = 15.86669808
ECCENTRICITY   = .00006945
INCLINATION    = 53.1577
RA_OF_ASC_NODE = 49.1274
ARG_OF_PERICENTER = 86.8838
MEAN_ANOMALY   = 344.1522

EPHEMERIS_TYPE = 0
CLASSIFICATION_TYPE = U
NORAD_CAT_ID   = 68067
ELEMENT_SET_NO = 999
REV_AT_EPOCH   = 278
BSTAR          = -.69191415E-2
MEAN_MOTION_DOT = -.158057E-1
MEAN_MOTION_DDOT = 0

CCSDS_OMM_VERS = 2.0
CREATION_DATE  = 
ORIGINATOR     = 

OBJECT_NAME    = STARLINK-36990
OBJECT_ID      = 2026-041AE
CENTER_NAME    = EARTH
REF_FRAME      = TEME
TIME_SYSTEM    = UTC
MEAN_ELEMENT_THEORY = SGP/SGP4

EPOCH          = 2026-03-12T06:00:00.999648
MEAN_MOTION    = 15.87012012
ECCENTRICITY   = .00007627
INCLINATION    = 53.1577
RA_OF_ASC_NODE = 49.1046
ARG_OF_PERICENTER = 84.9026
MEAN_ANOMALY   = 357.0192

EPHEMERIS_TYPE = 0
CLASSIFICATION_TYPE = U
NORAD_CAT_ID   = 68068
ELEMENT_SET_NO = 999
REV_AT_EPOCH   = 278
BSTAR          = -.6842476E-2
MEAN_MOTION_DOT = -.1588767E-1
MEAN_MOTION_DDOT = 0

CCSDS_OMM_VERS = 2.0
CREATION_DATE  = 
ORIGINATOR     = 

OBJECT_NAME    = STARLINK-36766
OBJECT_ID      = 2026-042A
CENTER_NAME    = EARTH
REF_FRAME      = TEME
TIME_SYSTEM    = UTC
MEAN_ELEMENT_THEORY = SGP/SGP4

EPOCH          = 2026-03-12T06:00:00.999648
MEAN_MOTION    = 15.94459645
ECCENTRICITY   = .00007873
INCLINATION    = 53.1598
RA_OF_ASC_NODE = 182.1777
ARG_OF_PERICENTER = 82.1498
MEAN_ANOMALY   = 307.8561

EPHEMERIS_TYPE = 0
CLASSIFICATION_TYPE = U
NORAD_CAT_ID   = 68069
ELEMENT_SET_NO = 999
REV_AT_EPOCH   = 245
BSTAR          = -.37615225E-2
MEAN_MOTION_DOT = -.1450078E-1
MEAN_MOTION_DDOT = .61627652E-3

CCSDS_OMM_VERS = 2.0
CREATION_DATE  = 
ORIGINATOR     = 

OBJECT_NAME    = STARLINK-36823
OBJECT_ID      = 2026-042B
CENTER_NAME    = EARTH
REF_FRAME      = TEME
TIME_SYSTEM    = UTC
MEAN_ELEMENT_THEORY = SGP/SGP4

EPOCH          = 2026-03-12T06:00:00.999648
MEAN_MOTION    = 15.94583908
ECCENTRICITY   = .00007834
INCLINATION    = 53.1593
RA_OF_ASC_NODE = 182.1725
ARG_OF_PERICENTER = 90.1986
MEAN_ANOMALY   = 302.2894

EPHEMERIS_TYPE = 0
CLASSIFICATION_TYPE = U
NORAD_CAT_ID   = 68070
ELEMENT_SET_NO = 999
REV_AT_EPOCH   = 245
BSTAR          = -.37575888E-2
MEAN_MOTION_DOT = -.145811E-1
MEAN_MOTION_DDOT = .62330826E-3

CCSDS_OMM_VERS = 2.0
CREATION_DATE  = 
ORIGINATOR     = 

OBJECT_NAME    = STARLINK-36970
OBJECT_ID      = 2026-042C
CENTER_NAME    = EARTH
REF_FRAME      = TEME
TIME_SYSTEM    = UTC
MEAN_ELEMENT_THEORY = SGP/SGP4

EPOCH          = 2026-03-12T06:00:00.999648
MEAN_MOTION    = 15.94817886
ECCENTRICITY   = .00010209
INCLINATION    = 53.1600
RA_OF_ASC_NODE = 182.1626
ARG_OF_PERICENTER = 70.5180
MEAN_ANOMALY   = 326.8140

EPHEMERIS_TYPE = 0
CLASSIFICATION_TYPE = U
NORAD_CAT_ID   = 68071
ELEMENT_SET_NO = 999
REV_AT_EPOCH   = 246
BSTAR          = -.37125798E-2
MEAN_MOTION_DOT = -.1458831E-1
MEAN_MOTION_DDOT = .62534465E-3

CCSDS_OMM_VERS = 2.0
CREATION_DATE  = 
ORIGINATOR     = 

OBJECT_NAME    = STARLINK-36972
OBJECT_ID      = 2026-042D
CENTER_NAME    = EARTH
REF_FRAME      = TEME
TIME_SYSTEM    = UTC
MEAN_ELEMENT_THEORY = SGP/SGP4

EPOCH          = 2026-03-12T06:00:00.999648
MEAN_MOTION    = 15.94699962
ECCENTRICITY   = .00007925
INCLINATION    = 53.1599
RA_OF_ASC_NODE = 182.1681
ARG_OF_PERICENTER = 82.3661
MEAN_ANOMALY   = 312.2860

EPHEMERIS_TYPE = 0
CLASSIFICATION_TYPE = U
NORAD_CAT_ID   = 68072
ELEMENT_SET_NO = 999
REV_AT_EPOCH   = 246
BSTAR          = -.37166127E-2
MEAN_MOTION_DOT = -.1451281E-1
MEAN_MOTION_DDOT = .61870317E-3

CCSDS_OMM_VERS = 2.0
CREATION_DATE  = 
ORIGINATOR     = 

OBJECT_NAME    = STARLINK-37074
OBJECT_ID      = 2026-042E
CENTER_NAME    = EARTH
REF_FRAME      = TEME
TIME_SYSTEM    = UTC
MEAN_ELEMENT_THEORY = SGP/SGP4

EPOCH          = 2026-03-12T06:00:00.999648
MEAN_MOTION    = 15.94938790
ECCENTRICITY   = .00007996
INCLINATION    = 53.1600
RA_OF_ASC_NODE = 182.1577
ARG_OF_PERICENTER = 81.9518
MEAN_ANOMALY   = 317.8444

EPHEMERIS_TYPE = 0
CLASSIFICATION_TYPE = U
NORAD_CAT_ID   = 68073
ELEMENT_SET_NO = 999
REV_AT_EPOCH   = 246
BSTAR          = -.36800323E-2
MEAN_MOTION_DOT = -.1455466E-1
MEAN_MOTION_DDOT = .62346847E-3

CCSDS_OMM_VERS = 2.0
CREATION_DATE  = 
ORIGINATOR     = 

OBJECT_NAME    = STARLINK-37045
OBJECT_ID      = 2026-042F
CENTER_NAME    = EARTH
REF_FRAME      = TEME
TIME_SYSTEM    = UTC
MEAN_ELEMENT_THEORY = SGP/SGP4

EPOCH          = 2026-03-12T06:00:00.999648
MEAN_MOTION    = 15.95061506
ECCENTRICITY   = .00009376
INCLINATION    = 53.1598
RA_OF_ASC_NODE = 182.1521
ARG_OF_PERICENTER = 81.7472
MEAN_ANOMALY   = 320.6756

EPHEMERIS_TYPE = 0
CLASSIFICATION_TYPE = U
NORAD_CAT_ID   = 68074
ELEMENT_SET_NO = 999
REV_AT_EPOCH   = 246
BSTAR          = -.36879479E-2
MEAN_MOTION_DOT = -.1468103E-1
MEAN_MOTION_DDOT = .63418976E-3

CCSDS_OMM_VERS = 2.0
CREATION_DATE  = 
ORIGINATOR     = 

OBJECT_NAME    = STARLINK-37026
OBJECT_ID      = 2026-042G
CENTER_NAME    = EARTH
REF_FRAME      = TEME
TIME_SYSTEM    = UTC
MEAN_ELEMENT_THEORY = SGP/SGP4

EPOCH          = 2026-03-12T06:00:00.999648
MEAN_MOTION    = 15.95181578
ECCENTRICITY   = .00008285
INCLINATION    = 53.1598
RA_OF_ASC_NODE = 182.1465
ARG_OF_PERICENTER = 83.0867
MEAN_ANOMALY   = 322.0262

EPHEMERIS_TYPE = 0
CLASSIFICATION_TYPE = U
NORAD_CAT_ID   = 68075
ELEMENT_SET_NO = 999
REV_AT_EPOCH   = 246
BSTAR          = -.36739249E-2
MEAN_MOTION_DOT = -.1471938E-1
MEAN_MOTION_DDOT = .63799893E-3

CCSDS_OMM_VERS = 2.0
CREATION_DATE  = 
ORIGINATOR     = 

OBJECT_NAME    = STARLINK-37023
OBJECT_ID      = 2026-042H
CENTER_NAME    = EARTH
REF_FRAME      = TEME
TIME_SYSTEM    = UTC
MEAN_ELEMENT_THEORY = SGP/SGP4

EPOCH          = 2026-03-12T06:00:00.999648
MEAN_MOTION    = 15.95299227
ECCENTRICITY   = .00008572
INCLINATION    = 53.1597
RA_OF_ASC_NODE = 182.1414
ARG_OF_PERICENTER = 82.7503
MEAN_ANOMALY   = 324.8466

EPHEMERIS_TYPE = 0
CLASSIFICATION_TYPE = U
NORAD_CAT_ID   = 68076
ELEMENT_SET_NO = 999
REV_AT_EPOCH   = 246
BSTAR          = -.3648818E-2
MEAN_MOTION_DOT = -.1471191E-1
MEAN_MOTION_DDOT = .63816839E-3

