STARLINK-36836          
1 68065U 26041AB  26071.25001157 -.01578166  00000+0 -68610-2 0  9993
2 68065  53.1580  49.1202 0000650  89.6379 344.8380 15.86805428  2784
STARLINK-36976          
1 68066U 26041AC  26071.25001157 -.01582728  00000+0 -68447-2 0  9991
2 68066  53.1577  49.1126 0000696  84.2846 353.8348 15.86918981  2789
STARLINK-36929          
1 68067U 26041AD  26071.25001157 -.01580570  00000+0 -69191-2 0  9992
2 68067  53.1577  49.1274 0000694  86.8838 344.1522 15.86669808  2789
STARLINK-36990          
1 68068U 26041AE  26071.25001157 -.01588767  00000+0 -68425-2 0  9998
2 68068  53.1577  49.1046 0000762  84.9026 357.0192 15.87012012  2787
STARLINK-36766          
1 68069U 26042A   26071.25001157 -.01450078  61628-3 -37615-2 0  9997
2 68069  53.1598 182.1777 0000787  82.1498 307.8561 15.94459645  2452
STARLINK-36823          
1 68070U 26042B   26071.25001157 -.01458110  62331-3 -37576-2 0  9992
2 68070  53.1593 182.1725 0000783  90.1986 302.2894 15.94583908  2457
STARLINK-36970          
1 68071U 26042C   26071.25001157 -.01458831  62534-3 -37126-2 0  9999
2 68071  53.1600 182.1626 0001020  70.5180 326.8140 15.94817886  2462
STARLINK-36972          
1 68072U 26042D   26071.25001157 -.01451281  61870-3 -37166-2 0  9998
2 68072  53.1599 182.1681 0000792  82.3661 312.2860 15.94699962  2462
STARLINK-37074          
1 68073U 26042E   26071.25001157 -.01455466  62347-3 -36800-2 0  9992
2 68073  53.1600 182.1577 0000799  81.9518 317.8444 15.94938790  2467
STARLINK-37045          
1 68074U 26042F   26071.25001157 -.01468103  63419-3 -36879-2 0  9992
2 68074  53.1598 182.1521 0000937  81.7472 320.6756 15.95061506  2465
STARLINK-37026          
1 68075U 26042G   26071.25001157 -.01471938  63800-3 -36739-2 0  9992
2 68075  53.1598 182.1465 0000828  83.0867 322.0262 15.95181578  2465
STARLINK-37023          
1 68076U 26042H   26071.25001157 -.01471191  63817-3 -36488-2 0  9993
2 68076  53.1597 182.1414 0000857  82.7503 324.8466 15.95299227  2461
